TEVEL2-4                
1 63213U 25052D   26117.22621397  .00022949  00000+0  72510-3 0  9991
2 63213  97.3964  13.5890 0000721 350.5099   9.6129 15.32821412 62309
TEVEL2-5                
1 63214U 25052E   26117.24142312  .00023451  00000+0  74424-3 0  9994
2 63214  97.3961  13.5656 0000845 345.0641  15.0576 15.32675195 62308
TEVEL2-6                
1 63215U 25052F   26117.18722564  .00023701  00000+0  75308-3 0  9991
2 63215  97.3966  13.4966 0000908 345.0631  15.0584 15.32633852 62297
TEVEL2-1                
1 63217U 25052H   26117.26493153  .00022423  00000+0  72328-3 0  9990
2 63217  97.3938  13.2561 0001536   0.6568 359.4676 15.32162503 62295
TEVEL2-3                
1 63218U 25052J   26117.26122861  .00022781  00000+0  73372-3 0  9993
2 63218  97.3942  13.2684 0001555   2.2746 357.8503 15.32207959 62290
TEVEL2-2                
1 63219U 25052K   26117.26546874  .00023604  00000+0  76095-3 0  9998
2 63219  97.3937  13.2585 0001694 359.1819   0.9420 15.32169388 62291
TEVEL2-9                
1 63237U 25052AD  26117.17954520  .00021436  00000+0  73182-3 0  9994
2 63237  97.4001  12.6520 0005231 342.2767  17.8290 15.30327401 62227
TEVEL2-7                
1 63238U 25052AE  26117.21134371  .00020411  00000+0  70253-3 0  9992
2 63238  97.4001  12.6198 0005308 342.2193  17.8861 15.30072047 62224
TEVEL2-8                
1 63239U 25052AF  26117.21901786  .00020305  00000+0  69930-3 0  9997
2 63239  97.4003  12.6060 0005331 343.3909  16.7156 15.30053732 62223
HADES-ICM               
1 63492U 25052BN  26116.68710460  .00399074  00000+0  23247-2 0  9997
2 63492  97.3831  19.5190 0003502 134.0397 226.1158 15.77342185 62656
FORESAIL-1 PRIME        
1 66778U 25276DS  26117.18888309  .00005836  00000+0  28843-3 0  9997
2 66778  97.4218 191.4071 0000831 301.6092  58.5061 15.18224292 22660
